ONEWEB-0267             
1 48985U 21060U   21224.58334491 -.01419864  00000-0 -33941+0 0  9995
2 48985  87.4993 223.2516 0008571 115.9077  66.4157 14.57469060  3552
ONEWEB-0268             
1 48986U 21060V   21224.58334491 -.01436907  00000-0 -30955+0 0  9995
2 48986  87.5545 223.2391 0009319 121.7858  72.5619 14.62236286  3561
ONEWEB-0269             
1 48987U 21060W   21224.58334491 -.01458696  00000-0 -30962+0 0  9993
2 48987  87.5514 223.2362 0008505 107.4543 229.5677 14.62967412  3575
ONEWEB-0270             
1 48988U 21060X   21224.58334491 -.01460251  00000-0 -31390+0 0  9990
2 48988  87.5608 223.2215 0013772  94.0216 108.7014 14.62340527  7677
ONEWEB-0271             
1 48989U 21060Y   21224.58334491 -.01441548  00000-0 -25488+0 0  9990
2 48989  87.5908 223.1806 0009953 124.8378  97.1802 14.70987001  7661
ONEWEB-0272             
1 48990U 21060Z   21224.58334491 -.01421623  00000-0 -31745+0 0  9997
2 48990  87.5266 223.2536 0009233 104.6693 311.9973 14.60575227  3583
ONEWEB-0273             
1 48991U 21060AA  21224.58334491 -.01401760  00000-0 -35068+0 0  9990
2 48991  87.5152 223.2570 0013833 116.1818 300.5314 14.55264878  3566
ONEWEB-0274             
1 48992U 21060AB  21224.58334491 -.01460983  00000-0 -30857+0 0  9994
2 48992  87.5522 223.2467 0010921 116.3650  18.9619 14.63170162  7668
ONEWEB-0275             
1 48993U 21060AC  21224.58334491 -.01453877  00000-0 -38748+0 0  9996
2 48993  87.4858 223.2621 0009562 123.8606 358.3065 14.51919539  7623
ONEWEB-0276             
1 48994U 21060AD  21224.58334491 -.01481444  00000-0 -36850+0 0  9990
2 48994  87.5065 223.2507 0012707 106.7905  46.0226 14.55165547  7643
ONEWEB-0277             
1 48995U 21060AE  21224.58334491 -.01443897  00000-0 -37074+0 0  9990
2 48995  87.5050 223.2716 0012541 125.1774 141.1457 14.53608123  3565
ONEWEB-0278             
1 48996U 21060AF  21224.58334491 -.01414198  00000-0 -29449+0 0  9990
2 48996  87.5767 223.2173 0014179  96.9920 146.8410 14.63645155  3563
ONEWEB-0279             
1 48997U 21060AG  21224.58334491 -.01458063  00000-0 -36574+0 0  9997
2 48997  87.5146 223.2641 0013730 110.9354 357.8610 14.54711545  7641
ONEWEB-0280             
1 48998U 21060AH  21224.58334491 -.01457153  00000-0 -39083+0 0  9995
2 48998  87.4767 223.2530 0007541 116.9000 288.6954 14.51646863  3571
ONEWEB-0281             
1 48999U 21060AJ  21224.58334491 -.01457258  00000-0 -31431+0 0  9991
2 48999  87.5697 223.2330 0011995 117.4554  34.0520 14.62204384  7667
ONEWEB-0282             
1 49000U 21060AK  21224.58334491 -.01441808  00000-0 -32225+0 0  9991
2 49000  87.5407 223.2189 0014073 104.5528 330.1375 14.60529015  3562
ONEWEB-0283             
1 49001U 21060AL  21224.58334491 -.01441734  00000-0 -32006+0 0  9997
2 49001  87.5432 223.2239 0013296 100.7846   2.8430 14.60845719  7677
ONEWEB-0284             
1 49002U 21060AM  21224.58334491 -.01472013  00000-0 -35357+0 0  9994
2 49002  87.5286 223.2466 0009015 103.6013 230.2906 14.56798810  3584
